STARLINK-1470           
1 45772U 20038AU  26068.60892913  .00054678  00000+0  19687-2 0  9990
2 45772  53.0480 174.6971 0002444  12.8687 347.2373 15.28074860317065
STARLINK-31513          
1 59529U 24073U   26067.38840791 -.00001564  00000+0 -47338-4 0  9993
2 59529  43.0017 322.1256 0000981 277.8235  82.2506 15.27571283106012
